{
    "week": 295,
    "satellites": [
        {
            "Name": "GSAT0218 (GALILEO 22)",
            "Line1": "1 43058U 17079D   24337.21538224  .00000034  00000+0  00000+0 0  9995",
            "Line2": "2 43058  55.2678 236.9701 0003200 299.2335  60.8175  1.70473873 43432",
            "SatelliteNumber": "43058",
            "Classification": "U",
            "LaunchYear": "17",
            "LaunchNumber": "079",
            "PieceOfLaunch": "D",
            "EpochYear": "24",
            "EpochDay": 337.21538224,
            "FirstDerivativeMeanMotion": 3.4e-07,
            "SecondDerivativeMeanMotion": "00000+0",
            "BSTAR": "00000+0",
            "SetNumber": "999",
            "Inclination": 55.2678,
            "RAAN": 236.9701,
            "Eccentricity": 0.00032,
            "ArgumentOfPerigee": 299.2335,
            "MeanAnomaly": 60.8175,
            "MeanMotion": 1.70473873,
            "RevolutionNumber": "4343"
        },
        {
            "Name": "GSAT0221 (GALILEO 25)",
            "Line1": "1 43564U 18060A   24335.94323812 -.00000063  00000+0  00000+0 0  9994",
            "Line2": "2 43564  57.2954 356.9770 0006239 275.5094  84.4744  1.70476009 39574",
            "SatelliteNumber": "43564",
            "Classification": "U",
            "LaunchYear": "18",
            "LaunchNumber": "060",
            "PieceOfLaunch": "A",
            "EpochYear": "24",
            "EpochDay": 335.94323812,
            "FirstDerivativeMeanMotion": -6.3e-07,
            "SecondDerivativeMeanMotion": "00000+0",
            "BSTAR": "00000+0",
            "SetNumber": "999",
            "Inclination": 57.2954,
            "RAAN": 356.977,
            "Eccentricity": 0.0006239,
            "ArgumentOfPerigee": 275.5094,
            "MeanAnomaly": 84.4744,
            "MeanMotion": 1.70476009,
            "RevolutionNumber": "3957"
        },
        {
            "Name": "GSAT0222 (GALILEO 26)",
            "Line1": "1 43565U 18060B   24337.33515994 -.00000060  00000+0  00000+0 0  9991",
            "Line2": "2 43565  57.2992 356.9414 0005755 254.9987 104.9896  1.70475682 39635",
            "SatelliteNumber": "43565",
            "Classification": "U",
            "LaunchYear": "18",
            "LaunchNumber": "060",
            "PieceOfLaunch": "B",
            "EpochYear": "24",
            "EpochDay": 337.33515994,
            "FirstDerivativeMeanMotion": -6e-07,
            "SecondDerivativeMeanMotion": "00000+0",
            "BSTAR": "00000+0",
            "SetNumber": "999",
            "Inclination": 57.2992,
            "RAAN": 356.9414,
            "Eccentricity": 0.0005755,
            "ArgumentOfPerigee": 254.9987,
            "MeanAnomaly": 104.9896,
            "MeanMotion": 1.70475682,
            "RevolutionNumber": "3963"
        },
        {
            "Name": "GSAT0219 (GALILEO 23)",
            "Line1": "1 43566U 18060C   24336.38363106 -.00000062  00000+0  00000+0 0  9994",
            "Line2": "2 43566  57.2981 356.9690 0005319 279.5645  80.4295  1.70475980 39597",
            "SatelliteNumber": "43566",
            "Classification": "U",
            "LaunchYear": "18",
            "LaunchNumber": "060",
            "PieceOfLaunch": "C",
            "EpochYear": "24",
            "EpochDay": 336.38363106,
            "FirstDerivativeMeanMotion": -6.2e-07,
            "SecondDerivativeMeanMotion": "00000+0",
            "BSTAR": "00000+0",
            "SetNumber": "999",
            "Inclination": 57.2981,
            "RAAN": 356.969,
            "Eccentricity": 0.0005319,
            "ArgumentOfPerigee": 279.5645,
            "MeanAnomaly": 80.4295,
            "MeanMotion": 1.7047598,
            "RevolutionNumber": "3959"
        },
        {
            "Name": "GSAT0220 (GALILEO 24)",
            "Line1": "1 43567U 18060D   24336.01778832 -.00000063  00000+0  00000+0 0  9992",
            "Line2": "2 43567  57.2979 356.9794 0005549 277.7603  82.2315  1.70475957 39574",
            "SatelliteNumber": "43567",
            "Classification": "U",
            "LaunchYear": "18",
            "LaunchNumber": "060",
            "PieceOfLaunch": "D",
            "EpochYear": "24",
            "EpochDay": 336.01778832,
            "FirstDerivativeMeanMotion": -6.3e-07,
            "SecondDerivativeMeanMotion": "00000+0",
            "BSTAR": "00000+0",
            "SetNumber": "999",
            "Inclination": 57.2979,
            "RAAN": 356.9794,
            "Eccentricity": 0.0005549,
            "ArgumentOfPerigee": 277.7603,
            "MeanAnomaly": 82.2315,
            "MeanMotion": 1.70475957,
            "RevolutionNumber": "3957"
        },
        {
            "Name": "GSAT0223 (GALILEO 27)",
            "Line1": "1 49809U 21116A   24336.63885514 -.00000062  00000+0  00000+0 0  9996",
            "Line2": "2 49809  57.2879 356.8560 0004232 243.6186 228.0766  1.70476119 18594",
            "SatelliteNumber": "49809",
            "Classification": "U",
            "LaunchYear": "21",
            "LaunchNumber": "116",
            "PieceOfLaunch": "A",
            "EpochYear": "24",
            "EpochDay": 336.63885514,
            "FirstDerivativeMeanMotion": -6.2e-07,
            "SecondDerivativeMeanMotion": "00000+0",
            "BSTAR": "00000+0",
            "SetNumber": "999",
            "Inclination": 57.2879,
            "RAAN": 356.856,
            "Eccentricity": 0.0004232,
            "ArgumentOfPerigee": 243.6186,
            "MeanAnomaly": 228.0766,
            "MeanMotion": 1.70476119,
            "RevolutionNumber": "1859"
        },
        {
            "Name": "GSAT0224 (GALILEO 28)",
            "Line1": "1 49810U 21116B   24336.27781841 -.00000062  00000+0  00000+0 0  9996",
            "Line2": "2 49810  57.2889 356.8642 0003741 245.2487 117.3978  1.70476203 18605",
            "SatelliteNumber": "49810",
            "Classification": "U",
            "LaunchYear": "21",
            "LaunchNumber": "116",
            "PieceOfLaunch": "B",
            "EpochYear": "24",
            "EpochDay": 336.27781841,
            "FirstDerivativeMeanMotion": -6.2e-07,
            "SecondDerivativeMeanMotion": "00000+0",
            "BSTAR": "00000+0",
            "SetNumber": "999",
            "Inclination": 57.2889,
            "RAAN": 356.8642,
            "Eccentricity": 0.0003741,
            "ArgumentOfPerigee": 245.2487,
            "MeanAnomaly": 117.3978,
            "MeanMotion": 1.70476203,
            "RevolutionNumber": "1860"
        },
        {
            "Name": "GSAT0225 (GALILEO 29)",
            "Line1": "1 59598U 24079A   24337.44153372  .00000046  00000+0  00000+0 0  9994",
            "Line2": "2 59598  54.7898 116.7999 0002998 170.9823 176.9189  1.70474907  3732",
            "SatelliteNumber": "59598",
            "Classification": "U",
            "LaunchYear": "24",
            "LaunchNumber": "079",
            "PieceOfLaunch": "A",
            "EpochYear": "24",
            "EpochDay": 337.44153372,
            "FirstDerivativeMeanMotion": 4.6e-07,
            "SecondDerivativeMeanMotion": "00000+0",
            "BSTAR": "00000+0",
            "SetNumber": "999",
            "Inclination": 54.7898,
            "RAAN": 116.7999,
            "Eccentricity": 0.0002998,
            "ArgumentOfPerigee": 170.9823,
            "MeanAnomaly": 176.9189,
            "MeanMotion": 1.70474907,
            "RevolutionNumber": "373"
        },
        {
            "Name": "GSAT0227 (GALILEO 30)",
            "Line1": "1 59600U 24079C   24337.64452112  .00000046  00000+0  00000+0 0  9994",
            "Line2": "2 59600  54.7845 116.7942 0003540 120.3490 239.6452  1.70474761  3793",
            "SatelliteNumber": "59600",
            "Classification": "U",
            "LaunchYear": "24",
            "LaunchNumber": "079",
            "PieceOfLaunch": "C",
            "EpochYear": "24",
            "EpochDay": 337.64452112,
            "FirstDerivativeMeanMotion": 4.6e-07,
            "SecondDerivativeMeanMotion": "00000+0",
            "BSTAR": "00000+0",
            "SetNumber": "999",
            "Inclination": 54.7845,
            "RAAN": 116.7942,
            "Eccentricity": 0.000354,
            "ArgumentOfPerigee": 120.349,
            "MeanAnomaly": 239.6452,
            "MeanMotion": 1.70474761,
            "RevolutionNumber": "379"
        },
        {
            "Name": "GSAT0232 (GALILEO 32)",
            "Line1": "1 61182U 24167A   24321.21686440 -.00000004  00000+0  00000+0 0  9994",
            "Line2": "2 61182  55.3884 237.1378 0015743 276.0571  83.7985  1.73178105  1028",
            "SatelliteNumber": "61182",
            "Classification": "U",
            "LaunchYear": "24",
            "LaunchNumber": "167",
            "PieceOfLaunch": "A",
            "EpochYear": "24",
            "EpochDay": 321.2168644,
            "FirstDerivativeMeanMotion": -4e-08,
            "SecondDerivativeMeanMotion": "00000+0",
            "BSTAR": "00000+0",
            "SetNumber": "999",
            "Inclination": 55.3884,
            "RAAN": 237.1378,
            "Eccentricity": 0.0015743,
            "ArgumentOfPerigee": 276.0571,
            "MeanAnomaly": 83.7985,
            "MeanMotion": 1.73178105,
            "RevolutionNumber": "102"
        }
    ]
}